STARLINK-6125           
1 57114U 23090P   26191.80737767 -.00000218  00000+0  16115-5 0  9996
2 57114  43.0007 306.0825 0001226 273.3945  86.6766 15.27574310169169
STARLINK-6085           
1 57115U 23090Q   26191.64398229  .00018421  00000+0  88587-3 0  9999
2 57115  42.9969 301.5377 0020048 276.3363  83.5202 15.18322355169203
STARLINK-6129           
1 57116U 23090R   26191.33810734  .00000000  00000+0  95455-5 0  9994
2 57116  43.0008 308.5835 0001561 260.9927  99.0748 15.27576418169095
STARLINK-6148           
1 57117U 23090S   26191.79709338  .00000114  00000+0  13666-4 0  9991
2 57117  43.0022 306.0045 0001394 270.8658  89.2034 15.27579285169154
STARLINK-6150           
1 57119U 23090U   26191.37922150 -.00000274  00000+0 -44553-6 0  9996
2 57119  43.0041 308.8807 0001095 256.5858 103.4872 15.27578725169094
STARLINK-6147           
1 57120U 23090V   26191.81380447  .00001659  00000+0  69820-4 0  9992
2 57120  43.0014 306.1256 0000805 271.5866  88.4893 15.27559460169167
STARLINK-6152           
1 57121U 23090W   26190.35602272  .00001060  00000+0  48036-4 0  9996
2 57121  42.9996 314.1049 0001313 267.0744  92.9957 15.27578427168753
STARLINK-6149           
1 57122U 23090X   26191.38693005  .00000327  00000+0  21430-4 0  9999
2 57122  43.0057 308.9379 0001562 270.6544  89.4129 15.27577198169099
STARLINK-6154           
1 57123U 23090Y   26191.75612709 -.00000988  00000+0 -26404-4 0  9994
2 57123  43.0032 306.5498 0001169 272.1031  87.9687 15.27577053168967
STARLINK-6146           
1 57124U 23090Z   26191.35994630 -.00000034  00000+0  82830-5 0  9994
2 57124  43.0029 308.7403 0001178 277.4268  82.6449 15.27577559169098
STARLINK-6100           
1 57125U 23090AA  26191.34681748 -.00000825  00000+0 -20443-4 0  9997
2 57125  43.0042 290.5170 0001677 270.9393  89.1267 15.27571745169118
STARLINK-6167           
1 57126U 23090AB  26191.39464112 -.00000999  00000+0 -26769-4 0  9996
2 57126  43.0044 308.9867 0001661 264.6730  95.3932 15.27572481169099
STARLINK-6165           
1 57127U 23090AC  26191.41377696 -.00002370  00000+0 -76644-4 0  9992
2 57127  43.0026 308.2795 0001117 267.5350  92.5374 15.27576174168911
STARLINK-6163           
1 57128U 23090AD  26191.40605962  .00000699  00000+0  34926-4 0  9999
2 57128  43.0051 308.2227 0001317 274.0331  86.0370 15.27569194168912
STARLINK-6170           
1 57129U 23090AE  26191.32768224 -.00000091  00000+0  62246-5 0  9996
2 57129  43.0024 291.2351 0001574 275.4556  84.6116 15.27583731169108
STARLINK-6172           
1 57130U 23090AF  26191.34453079 -.00000281  00000+0 -69022-6 0  9991
2 57130  42.9993 308.6204 0001699 266.1473  93.9185 15.27575398168902
STARLINK-6162           
1 57131U 23090AG  26191.26985681  .00000382  00000+0  23413-4 0  9994
2 57131  43.0027 290.8025 0001727 243.0120 117.0555 15.27570114169104
STARLINK-6128           
1 57132U 23090AH  26190.82914011  .00000755  00000+0  36947-4 0  9995
2 57132  43.0026 311.6328 0001200 273.0337  87.0378 15.27581425168825
STARLINK-6143           
1 57133U 23090AJ  26191.61220988  .00001089  00000+0  49094-4 0  9995
2 57133  43.0103 289.0808 0001976 285.0064  75.0569 15.27590538169154
STARLINK-6133           
1 57134U 23090AK  26191.26600371  .00000490  00000+0  27334-4 0  9993
2 57134  43.0043 290.7799 0001758 284.4933  75.5723 15.27579019169105
STARLINK-6127           
1 57135U 23090AL  26190.62113438  .00001069  00000+0  48369-4 0  9990
2 57135  43.0040 294.5349 0001609 277.7822  82.2846 15.27579699169007
STARLINK-6112           
1 57136U 23090AM  26191.33910739  .00001171  00000+0  52069-4 0  9995
2 57136  43.0045 290.4648 0001839 282.1510  77.9136 15.27590901169135
STARLINK-5347           
1 57137U 23090AN  26191.26471886  .00000473  00000+0  26701-4 0  9991
2 57137  43.0044 290.7679 0001759 282.0850  77.9804 15.27586707169107
STARLINK-5336           
1 57138U 23090AP  26191.60448457  .00000790  00000+0  38216-4 0  9994
2 57138  42.9972 289.0086 0001905 276.0011  84.0623 15.27596842169158
STARLINK-5355           
1 57139U 23090AQ  26191.33267333  .00000083  00000+0  12543-4 0  9997
2 57139  43.0043 290.4149 0001486 269.5894  90.4787 15.27577305169117
STARLINK-5357           
1 57141U 23090AS  26191.26857369  .00000216  00000+0  17365-4 0  9991
2 57141  43.0022 290.7895 0001178 259.7091 100.3628 15.27578484169109
STARLINK-5361           
1 57142U 23090AT  26191.33781713 -.00000329  00000+0 -24446-5 0  9995
2 57142  43.0016 290.4436 0001378 245.2648 114.8060 15.27573707169115
STARLINK-5358           
1 57143U 23090AU  26191.27628320  .00000505  00000+0  27879-4 0  9999
2 57143  43.0031 290.8458 0001610 260.3529  99.7141 15.27574477169101
STARLINK-5150           
1 57144U 23090AV  26191.33653024  .00000331  00000+0  21566-4 0  9990
2 57144  43.0029 290.4396 0001801 269.7324  90.3321 15.27586393169112
STARLINK-5768           
1 57145U 23090AW  26191.30198611 -.00000003  00000+0  94313-5 0  9992
2 57145  43.0027 291.0333 0001337 272.3975  87.6724 15.27576368169101
