OBJECT_NAME,OBJECT_ID,EPOCH,MEAN_MOTION,ECCENTRICITY,INCLINATION,RA_OF_ASC_NODE,ARG_OF_PERICENTER,MEAN_ANOMALY,EPHEMERIS_TYPE,CLASSIFICATION_TYPE,NORAD_CAT_ID,ELEMENT_SET_NO,REV_AT_EPOCH,BSTAR,MEAN_MOTION_DOT,MEAN_MOTION_DDOT
STARLINK-6125,2023-090P,2026-07-10T19:22:37.430688,15.27574310,.0001226,43.0007,306.0825,273.3945,86.6766,0,U,57114,999,16916,.16115E-5,-.218E-5,0
STARLINK-6085,2023-090Q,2026-07-10T15:27:20.069856,15.18322355,.0020048,42.9969,301.5377,276.3363,83.5202,0,U,57115,999,16920,.88587E-3,.18421E-3,0
STARLINK-6129,2023-090R,2026-07-10T08:06:52.474176,15.27576418,.00015616,43.0008,308.5835,260.9927,99.0748,0,U,57116,999,16909,.9545497E-5,0,0
STARLINK-6148,2023-090S,2026-07-10T19:07:48.868032,15.27579285,.0001394,43.0022,306.0045,270.8658,89.2034,0,U,57117,999,16915,.13666E-4,.114E-5,0
STARLINK-6150,2023-090U,2026-07-10T09:06:04.737600,15.27578725,.00010957,43.0041,308.8807,256.5858,103.4872,0,U,57119,999,16909,-.445527E-6,-.274E-5,0
STARLINK-6147,2023-090V,2026-07-10T19:31:52.706208,15.27559460,.0000805,43.0014,306.1256,271.5866,88.4893,0,U,57120,999,16916,.6982E-4,.1659E-4,0
STARLINK-6152,2023-090W,2026-07-09T08:32:40.363008,15.27578427,.00013139,42.9996,314.1049,267.0744,92.9957,0,U,57121,999,16875,.48035627E-4,.106E-4,0
STARLINK-6149,2023-090X,2026-07-10T09:17:10.756320,15.27577198,.00015622,43.0057,308.9379,270.6544,89.4129,0,U,57122,999,16909,.21430258E-4,.327E-5,0
STARLINK-6154,2023-090Y,2026-07-10T18:08:49.380576,15.27577053,.0001169,43.0032,306.5498,272.1031,87.9687,0,U,57123,999,16896,-.26404E-4,-.988E-5,0
STARLINK-6146,2023-090Z,2026-07-10T08:38:19.360320,15.27577559,.00011785,43.0029,308.7403,277.4268,82.6449,0,U,57124,999,16909,.8283016E-5,-.34E-6,0
STARLINK-6100,2023-090AA,2026-07-10T08:19:25.030272,15.27571745,.0001677,43.0042,290.5170,270.9393,89.1267,0,U,57125,999,16911,-.20442681E-4,-.825E-5,0
STARLINK-6167,2023-090AB,2026-07-10T09:28:16.992768,15.27572481,.00016617,43.0044,308.9867,264.6730,95.3932,0,U,57126,999,16909,-.26768651E-4,-.999E-5,0
STARLINK-6165,2023-090AC,2026-07-10T09:55:50.329344,15.27576174,.00011177,43.0026,308.2795,267.5350,92.5374,0,U,57127,999,16891,-.76644234E-4,-.237E-4,0
STARLINK-6163,2023-090AD,2026-07-10T09:44:43.551168,15.27569194,.00013177,43.0051,308.2227,274.0331,86.0370,0,U,57128,999,16891,.34926485E-4,.699E-5,0
STARLINK-6170,2023-090AE,2026-07-10T07:51:51.745536,15.27583731,.0001574,43.0024,291.2351,275.4556,84.6116,0,U,57129,999,16910,.6224633E-5,-.91E-6,0
STARLINK-6172,2023-090AF,2026-07-10T08:16:07.460256,15.27575398,.00016991,42.9993,308.6204,266.1473,93.9185,0,U,57130,999,16890,-.690224E-6,-.281E-5,0
STARLINK-6162,2023-090AG,2026-07-10T06:28:35.628384,15.27570114,.00017271,43.0027,290.8025,243.0120,117.0555,0,U,57131,999,16910,.23413197E-4,.382E-5,0
STARLINK-6128,2023-090AH,2026-07-09T19:53:57.705504,15.27581425,.00012001,43.0026,311.6328,273.0337,87.0378,0,U,57132,999,16882,.36947446E-4,.755E-5,0
STARLINK-6143,2023-090AJ,2026-07-10T14:41:34.933632,15.27590538,.0001976,43.0103,289.0808,285.0064,75.0569,0,U,57133,999,16915,.49094E-4,.1089E-4,0
STARLINK-6133,2023-090AK,2026-07-10T06:23:02.720544,15.27579019,.00017588,43.0043,290.7799,284.4933,75.5723,0,U,57134,999,16910,.27334465E-4,.49E-5,0
STARLINK-6127,2023-090AL,2026-07-09T14:54:26.010432,15.27579699,.00016096,43.0040,294.5349,277.7822,82.2846,0,U,57135,999,16900,.48368529E-4,.1069E-4,0
STARLINK-6112,2023-090AM,2026-07-10T08:08:18.878496,15.27590901,.0001839,43.0045,290.4648,282.1510,77.9136,0,U,57136,999,16913,.52069491E-4,.1171E-4,0
STARLINK-5347,2023-090AN,2026-07-10T06:21:11.709504,15.27586707,.00017598,43.0044,290.7679,282.0850,77.9804,0,U,57137,999,16910,.26701131E-4,.473E-5,0
STARLINK-5336,2023-090AP,2026-07-10T14:30:27.466848,15.27596842,.0001905,42.9972,289.0086,276.0011,84.0623,0,U,57138,999,16915,.38216E-4,.79E-5,0
STARLINK-5355,2023-090AQ,2026-07-10T07:59:02.975712,15.27577305,.00014862,43.0043,290.4149,269.5894,90.4787,0,U,57139,999,16911,.12542615E-4,.83E-6,0
STARLINK-5357,2023-090AS,2026-07-10T06:26:44.766816,15.27578484,.00011789,43.0022,290.7895,259.7091,100.3628,0,U,57141,999,16910,.17365176E-4,.216E-5,0
STARLINK-5361,2023-090AT,2026-07-10T08:06:27.400032,15.27573707,.00013787,43.0016,290.4436,245.2648,114.8060,0,U,57142,999,16911,-.2444593E-5,-.329E-5,0
STARLINK-5358,2023-090AU,2026-07-10T06:37:50.868480,15.27574477,.00016103,43.0031,290.8458,260.3529,99.7141,0,U,57143,999,16910,.27879122E-4,.505E-5,0
STARLINK-5150,2023-090AV,2026-07-10T08:04:36.212736,15.27586393,.00018019,43.0029,290.4396,269.7324,90.3321,0,U,57144,999,16911,.2156579E-4,.331E-5,0
STARLINK-5768,2023-090AW,2026-07-10T07:14:51.599904,15.27576368,.00013379,43.0027,291.0333,272.3975,87.6724,0,U,57145,999,16910,.9431292E-5,-.3E-7,0
